[{"OBJECT_NAME":"JILIN-1 KUANFU 01C","OBJECT_ID":"2022-048A","EPOCH":"2026-03-09T22:44:12.026688","MEAN_MOTION":15.09601076,"ECCENTRICITY":0.00140886,"INCLINATION":97.5312,"RA_OF_ASC_NODE":147.8831,"ARG_OF_PERICENTER":308.8335,"MEAN_ANOMALY":51.1636,"EPHEMERIS_TYPE":0,"CLASSIFICATION_TYPE":"U","NORAD_CAT_ID":52443,"ELEMENT_SET_NO":999,"REV_AT_EPOCH":21222,"BSTAR":0.00028577595,"MEAN_MOTION_DOT":4.539e-5,"MEAN_MOTION_DDOT":0},{"OBJECT_NAME":"STARLINK-6351","OBJECT_ID":"2023-094Y","EPOCH":"2026-03-09T22:00:01.999584","MEAN_MOTION":15.08401775,"ECCENTRICITY":0.00014554,"INCLINATION":43.0006,"RA_OF_ASC_NODE":16.3016,"ARG_OF_PERICENTER":248.1623,"MEAN_ANOMALY":40.2554,"EPHEMERIS_TYPE":0,"CLASSIFICATION_TYPE":"U","NORAD_CAT_ID":57240,"ELEMENT_SET_NO":999,"REV_AT_EPOCH":567,"BSTAR":0.0022828192,"MEAN_MOTION_DOT":0.00036084,"MEAN_MOTION_DDOT":0}]
